[{"OBJECT_NAME":"SENTINEL-1D","OBJECT_ID":"2025-251A","EPOCH":"2026-03-09T22:39:29.854656","MEAN_MOTION":14.59197847,"ECCENTRICITY":0.00012838,"INCLINATION":98.1825,"RA_OF_ASC_NODE":77.7074,"ARG_OF_PERICENTER":89.3991,"MEAN_ANOMALY":270.7355,"EPHEMERIS_TYPE":0,"CLASSIFICATION_TYPE":"U","NORAD_CAT_ID":66315,"ELEMENT_SET_NO":999,"REV_AT_EPOCH":1825,"BSTAR":3.3692424e-5,"MEAN_MOTION_DOT":1.13e-6,"MEAN_MOTION_DDOT":0},{"OBJECT_NAME":"CZ-6A DEB","OBJECT_ID":"2022-151XC","EPOCH":"2026-03-09T16:58:41.768832","MEAN_MOTION":14.67448298,"ECCENTRICITY":0.007744,"INCLINATION":98.6388,"RA_OF_ASC_NODE":129.5971,"ARG_OF_PERICENTER":231.8481,"MEAN_ANOMALY":127.5727,"EPHEMERIS_TYPE":0,"CLASSIFICATION_TYPE":"U","NORAD_CAT_ID":55235,"ELEMENT_SET_NO":999,"REV_AT_EPOCH":17416,"BSTAR":0.0021882908,"MEAN_MOTION_DOT":0.0001292,"MEAN_MOTION_DDOT":0}]
